CCSDS_OMM_VERS = 2.0
CREATION_DATE  = 
ORIGINATOR     = 

OBJECT_NAME    = HRC MONOBLOCK CAMERA
OBJECT_ID      = 1998-067XR
CENTER_NAME    = EARTH
REF_FRAME      = TEME
TIME_SYSTEM    = UTC
MEAN_ELEMENT_THEORY = SGP/SGP4

EPOCH          = 2026-03-17T02:50:58.951104
MEAN_MOTION    = 15.63041663
ECCENTRICITY   = .0003834
INCLINATION    = 51.6290
RA_OF_ASC_NODE = 28.0146
ARG_OF_PERICENTER = 127.1537
MEAN_ANOMALY   = 232.9808

EPHEMERIS_TYPE = 0
CLASSIFICATION_TYPE = U
NORAD_CAT_ID   = 66052
ELEMENT_SET_NO = 999
REV_AT_EPOCH   = 2355
BSTAR          = .43154E-3
MEAN_MOTION_DOT = .39682E-3
MEAN_MOTION_DDOT = 0

CCSDS_OMM_VERS = 2.0
CREATION_DATE  = 
ORIGINATOR     = 

OBJECT_NAME    = HTV-X1
OBJECT_ID      = 2025-241A
CENTER_NAME    = EARTH
REF_FRAME      = TEME
TIME_SYSTEM    = UTC
MEAN_ELEMENT_THEORY = SGP/SGP4

EPOCH          = 2026-03-14T08:15:41.711328
MEAN_MOTION    = 15.22910160
ECCENTRICITY   = .0005741
INCLINATION    = 51.6358
RA_OF_ASC_NODE = 50.7100
ARG_OF_PERICENTER = 187.4047
MEAN_ANOMALY   = 172.6846

EPHEMERIS_TYPE = 0
CLASSIFICATION_TYPE = U
NORAD_CAT_ID   = 66174
ELEMENT_SET_NO = 999
REV_AT_EPOCH   = 2166
BSTAR          = .57087E-3
MEAN_MOTION_DOT = .13268E-3
MEAN_MOTION_DDOT = 0

CCSDS_OMM_VERS = 2.0
CREATION_DATE  = 
ORIGINATOR     = 

OBJECT_NAME    = SZ-21 MODULE
OBJECT_ID      = 2025-246C
CENTER_NAME    = EARTH
REF_FRAME      = TEME
TIME_SYSTEM    = UTC
MEAN_ELEMENT_THEORY = SGP/SGP4

EPOCH          = 2026-03-16T15:07:24.413088
MEAN_MOTION    = 15.69116640
ECCENTRICITY   = .0000725
INCLINATION    = 41.4745
RA_OF_ASC_NODE = 160.6185
ARG_OF_PERICENTER = 306.4076
MEAN_ANOMALY   = 53.6699

EPHEMERIS_TYPE = 0
CLASSIFICATION_TYPE = U
NORAD_CAT_ID   = 66515
ELEMENT_SET_NO = 999
REV_AT_EPOCH   = 1916
BSTAR          = .27011E-3
MEAN_MOTION_DOT = .32043E-3
MEAN_MOTION_DDOT = 0

CCSDS_OMM_VERS = 2.0
CREATION_DATE  = 
ORIGINATOR     = 

OBJECT_NAME    = SHENZHOU-22
OBJECT_ID      = 2025-272A
CENTER_NAME    = EARTH
REF_FRAME      = TEME
TIME_SYSTEM    = UTC
MEAN_ELEMENT_THEORY = SGP/SGP4

EPOCH          = 2026-03-16T13:29:03.688800
MEAN_MOTION    = 15.61049688
ECCENTRICITY   = .0006265
INCLINATION    = 41.4671
RA_OF_ASC_NODE = 166.3358
ARG_OF_PERICENTER = 313.8090
MEAN_ANOMALY   = 46.2230

EPHEMERIS_TYPE = 0
CLASSIFICATION_TYPE = U
NORAD_CAT_ID   = 66645
ELEMENT_SET_NO = 999
REV_AT_EPOCH   = 27040
BSTAR          = .25302E-3
MEAN_MOTION_DOT = .21647E-3
MEAN_MOTION_DDOT = 0

CCSDS_OMM_VERS = 2.0
CREATION_DATE  = 
ORIGINATOR     = 

OBJECT_NAME    = SOYUZ-MS 28
OBJECT_ID      = 2025-275A
CENTER_NAME    = EARTH
REF_FRAME      = TEME
TIME_SYSTEM    = UTC
MEAN_ELEMENT_THEORY = SGP/SGP4

EPOCH          = 2026-03-17T03:05:26.611872
MEAN_MOTION    = 15.48331788
ECCENTRICITY   = .0006017
INCLINATION    = 51.6339
RA_OF_ASC_NODE = 35.5823
ARG_OF_PERICENTER = 202.6546
MEAN_ANOMALY   = 157.4177

EPHEMERIS_TYPE = 0
CLASSIFICATION_TYPE = U
NORAD_CAT_ID   = 66664
ELEMENT_SET_NO = 999
REV_AT_EPOCH   = 55752
BSTAR          = .19871E-3
MEAN_MOTION_DOT = .10265E-3
MEAN_MOTION_DDOT = 0

CCSDS_OMM_VERS = 2.0
CREATION_DATE  = 
ORIGINATOR     = 

OBJECT_NAME    = DUPLEX
OBJECT_ID      = 1998-067XS
CENTER_NAME    = EARTH
REF_FRAME      = TEME
TIME_SYSTEM    = UTC
MEAN_ELEMENT_THEORY = SGP/SGP4

EPOCH          = 2026-03-16T03:14:39.992640
MEAN_MOTION    = 15.56663362
ECCENTRICITY   = .00028117
INCLINATION    = 51.6293
RA_OF_ASC_NODE = 37.1993
ARG_OF_PERICENTER = 140.2685
MEAN_ANOMALY   = 219.8513

EPHEMERIS_TYPE = 0
CLASSIFICATION_TYPE = U
NORAD_CAT_ID   = 66906
ELEMENT_SET_NO = 999
REV_AT_EPOCH   = 1613
BSTAR          = .38599321E-3
MEAN_MOTION_DOT = .27658E-3
MEAN_MOTION_DDOT = 0

CCSDS_OMM_VERS = 2.0
CREATION_DATE  = 
ORIGINATOR     = 

OBJECT_NAME    = ISS OBJECT XT
OBJECT_ID      = 1998-067XT
CENTER_NAME    = EARTH
REF_FRAME      = TEME
TIME_SYSTEM    = UTC
MEAN_ELEMENT_THEORY = SGP/SGP4

EPOCH          = 2026-03-16T21:36:37.081152
MEAN_MOTION    = 15.71760145
ECCENTRICITY   = .0004857
INCLINATION    = 51.6248
RA_OF_ASC_NODE = 28.7869
ARG_OF_PERICENTER = 127.6513
MEAN_ANOMALY   = 232.4926

EPHEMERIS_TYPE = 0
CLASSIFICATION_TYPE = U
NORAD_CAT_ID   = 66907
ELEMENT_SET_NO = 999
REV_AT_EPOCH   = 1631
BSTAR          = .11449E-2
MEAN_MOTION_DOT = .153665E-2
MEAN_MOTION_DDOT = 0

CCSDS_OMM_VERS = 2.0
CREATION_DATE  = 
ORIGINATOR     = 

OBJECT_NAME    = ISS OBJECT XU
OBJECT_ID      = 1998-067XU
CENTER_NAME    = EARTH
REF_FRAME      = TEME
TIME_SYSTEM    = UTC
MEAN_ELEMENT_THEORY = SGP/SGP4

EPOCH          = 2026-03-16T21:33:08.156448
MEAN_MOTION    = 15.71905956
ECCENTRICITY   = .000516
INCLINATION    = 51.6246
RA_OF_ASC_NODE = 28.7673
ARG_OF_PERICENTER = 128.8634
MEAN_ANOMALY   = 231.2825

EPHEMERIS_TYPE = 0
CLASSIFICATION_TYPE = U
NORAD_CAT_ID   = 66908
ELEMENT_SET_NO = 999
REV_AT_EPOCH   = 1631
BSTAR          = .11587E-2
MEAN_MOTION_DOT = .156547E-2
MEAN_MOTION_DDOT = 0

CCSDS_OMM_VERS = 2.0
CREATION_DATE  = 
ORIGINATOR     = 

OBJECT_NAME    = SILVERSAT
OBJECT_ID      = 1998-067XV
CENTER_NAME    = EARTH
REF_FRAME      = TEME
TIME_SYSTEM    = UTC
MEAN_ELEMENT_THEORY = SGP/SGP4

EPOCH          = 2026-03-16T21:13:40.474272
MEAN_MOTION    = 15.75488224
ECCENTRICITY   = .0005556
INCLINATION    = 51.6233
RA_OF_ASC_NODE = 27.9241
ARG_OF_PERICENTER = 128.9554
MEAN_ANOMALY   = 231.1941

EPHEMERIS_TYPE = 0
CLASSIFICATION_TYPE = U
NORAD_CAT_ID   = 66909
ELEMENT_SET_NO = 999
REV_AT_EPOCH   = 1632
BSTAR          = .13E-2
MEAN_MOTION_DOT = .206281E-2
MEAN_MOTION_DDOT = 0

CCSDS_OMM_VERS = 2.0
CREATION_DATE  = 
ORIGINATOR     = 

OBJECT_NAME    = ISS OBJECT XW
OBJECT_ID      = 1998-067XW
CENTER_NAME    = EARTH
REF_FRAME      = TEME
TIME_SYSTEM    = UTC
MEAN_ELEMENT_THEORY = SGP/SGP4

EPOCH          = 2026-03-16T21:34:22.102752
MEAN_MOTION    = 15.70856846
ECCENTRICITY   = .0005458
INCLINATION    = 51.6239
RA_OF_ASC_NODE = 28.7698
ARG_OF_PERICENTER = 130.1811
MEAN_ANOMALY   = 229.9665

EPHEMERIS_TYPE = 0
CLASSIFICATION_TYPE = U
NORAD_CAT_ID   = 66910
ELEMENT_SET_NO = 999
REV_AT_EPOCH   = 1631
BSTAR          = .10486E-2
MEAN_MOTION_DOT = .13514E-2
MEAN_MOTION_DDOT = 0

CCSDS_OMM_VERS = 2.0
CREATION_DATE  = 
ORIGINATOR     = 

OBJECT_NAME    = ISS OBJECT XX
OBJECT_ID      = 1998-067XX
CENTER_NAME    = EARTH
REF_FRAME      = TEME
TIME_SYSTEM    = UTC
MEAN_ELEMENT_THEORY = SGP/SGP4

EPOCH          = 2026-03-16T20:45:39.588192
MEAN_MOTION    = 15.79589243
ECCENTRICITY   = .0007024
INCLINATION    = 51.6212
RA_OF_ASC_NODE = 27.0197
ARG_OF_PERICENTER = 133.5806
MEAN_ANOMALY   = 226.5779

EPHEMERIS_TYPE = 0
CLASSIFICATION_TYPE = U
NORAD_CAT_ID   = 66911
ELEMENT_SET_NO = 999
REV_AT_EPOCH   = 1632
BSTAR          = .14074E-2
MEAN_MOTION_DOT = .270415E-2
MEAN_MOTION_DDOT = 0

CCSDS_OMM_VERS = 2.0
CREATION_DATE  = 
ORIGINATOR     = 

OBJECT_NAME    = ISS OBJECT XY
OBJECT_ID      = 1998-067XY
CENTER_NAME    = EARTH
REF_FRAME      = TEME
TIME_SYSTEM    = UTC
MEAN_ELEMENT_THEORY = SGP/SGP4

EPOCH          = 2026-03-16T20:43:51.413664
MEAN_MOTION    = 15.65148353
ECCENTRICITY   = .0003553
INCLINATION    = 51.6275
RA_OF_ASC_NODE = 30.8080
ARG_OF_PERICENTER = 131.7631
MEAN_ANOMALY   = 228.3668

EPHEMERIS_TYPE = 0
CLASSIFICATION_TYPE = U
NORAD_CAT_ID   = 66912
ELEMENT_SET_NO = 999
REV_AT_EPOCH   = 1627
BSTAR          = .83336E-3
MEAN_MOTION_DOT = .84324E-3
MEAN_MOTION_DDOT = 0

